ECHOSTAR 6              
1 26402U 00038A   16314.13156791 -.00000145  00000-0  00000+0 0  9993
2 26402   3.7673  68.2232 0003753 172.8628 118.8261  1.00271776 59740
INTELSAT 9 (IS-9)       
1 26451U 00043A   16314.37098824 -.00000269  00000-0  00000+0 0  9998
2 26451   3.1013  72.3699 0003554 172.2896 254.8223  1.00270999 59687
BRASILSAT B4            
1 26469U 00046A   16313.36074031 -.00000170  00000-0  00000+0 0  9993
2 26469   1.1970  86.1503 0001985 140.8788 219.1094  1.00270141 59465
NILESAT 102             
1 26470U 00046B   16314.29344905 -.00000058  00000-0  00000+0 0  9993
2 26470   1.2206  84.4488 0005850 150.3687 272.7411  1.00271857 59476
ASTRA 2B                
1 26494U 00054A   16314.16458553  .00000152  00000-0  00000+0 0  9993
2 26494   1.7594  79.6422 0001818 104.2348 323.1747  1.00273631 59074
AMC-7 (GE-7)            
1 26495U 00054B   16314.23931086  .00000087  00000-0  00000+0 0  9996
2 26495   0.0645  79.8326 0002390 162.7831 117.3978  1.00272257 59095
NSS-11 (AAP-1)          
1 26554U 00059A   16313.87059032 -.00000345  00000-0  00000+0 0  9996
2 26554   0.0201  10.6804 0001607 186.3875 273.0453  1.00270289 59005
N-SAT-110 (JCSAT-110)   
1 26559U 00060A   16313.88457713 -.00000351  00000-0  00000+0 0  9999
2 26559   0.0178 275.0421 0000265 181.7416  20.2618  1.00269606 58942
AMC-6 (GE-6)            
1 26580U 00067A   16314.49654714 -.00000260  00000-0  00000+0 0  9997
2 26580   0.0226 323.1989 0002700 266.4443 286.2388  1.00270459 58824
INTELSAT 12 (IS-12)     
1 26590U 00068A   16314.09601679  .00000136  00000-0  00000+0 0  9998
2 26590   0.0522  95.2916 0002444 175.7625 217.2423  1.00274101 58631
INTELSAT 1R (IS-1R)     
1 26608U 00072A   16314.15857013 -.00000283  00000-0  00000+0 0  9999
2 26608   0.0142 274.1169 0000259 136.4256   5.2365  1.00268969 58492
ANIK F1                 
1 26624U 00076A   16313.16537494 -.00000074  00000-0  00000+0 0  9997
2 26624   0.0293 138.8927 0002563  61.4487 159.6864  1.00272237 58556
ASTRA 2D                
1 26638U 00081A   16313.90331294  .00000069  00000-0  00000+0 0  9993
2 26638   3.2230  71.0399 0001559 158.4755 201.4297  1.00273794 58226
AMC-8 (GE-8)            
1 26639U 00081B   16313.37155116  .00000104  00000-0  00000+0 0  9992
2 26639   0.0156  33.8264 0002761 198.3936 170.5019  1.00269515 58107
TURKSAT 2A              
1 26666U 01002A   16313.52345497 -.00000133  00000-0  00000+0 0  9999
2 26666   0.6848  85.2776 0009933 199.5487  75.1023  0.98208624 57982
SKYNET 4F               
1 26695U 01005B   16313.16370789 -.00000243  00000-0  00000+0 0  9998
2 26695   8.6377  38.2187 0002626 194.1298 200.3838  1.00269194 57705
EUTELSAT 33C            
1 26719U 01011A   16313.69514811  .00000155  00000-0  00000+0 0  9997
2 26719   0.0701  18.3259 0004500 225.9783  87.3541  1.00271870 57408
INTELSAT 10 (IS-10)     
1 26766U 01019A   16314.11451050  .00000127  00000-0  00000+0 0  9999
2 26766   1.0553  86.0849 0004738 156.9819 254.4093  1.00269577 56767
INTELSAT 901 (IS-901)   
1 26824U 01024A   16314.17550900 -.00000141  00000-0  00000+0 0  9997
2 26824   0.0172 299.9848 0002717 281.1759 232.8283  1.00272206 56439
ASTRA 2C                
1 26853U 01025A   16314.08956625  .00000046  00000-0  00000+0 0  9997
2 26853   0.0526 289.2717 0003159 303.7704 268.2140  1.00272708 56413
ARTEMIS                 
1 26863U 01029A   16313.93669742 -.00000361  00000-0  00000+0 0  9997
2 26863  12.4953  35.3858 0005618 200.4444 270.2765  1.00416006 57235
INTELSAT 902 (IS-902)   
1 26900U 01039A   16314.09393912  .00000032  00000-0  00000+0 0  9995
2 26900   0.0212 288.9532 0002771 304.1570 271.4349  1.00271651 55607
EUTELSAT 8 WEST A       
1 26927U 01042A   16314.17489784 -.00000101  00000-0  00000+0 0  9998
2 26927   0.0731 334.5713 0006058 267.1022 217.5976  1.00271871 55367
DIRECTV 4S              
1 26985U 01052A   16314.16646653 -.00000114  00000-0  00000+0 0  9996
2 26985   0.0192 102.7778 0002288 125.3874 139.3910  1.00271242 54831
INSAT-3C                
1 27298U 02002A   16314.03747487 -.00000078  00000-0  00000+0 0  9992
2 27298   0.1575  92.2283 0003093 144.5098 259.4086  1.00271733 54197
ECHOSTAR 7              
1 27378U 02006A   16313.37660624 -.00000001  00000-0  00000+0 0  9994
2 27378   0.0457  67.4361 0001236 169.3242 188.0407  1.00273388 53896
INTELSAT 904 (IS-904)   
1 27380U 02007A   16313.84530578  .00000048  00000-0  00000+0 0  9994
2 27380   0.0148 296.7385 0003138 280.7926 195.2625  1.00272719 53911
TDRS 9                  
1 27389U 02011A   16314.17489784 -.00000095  00000-0  00000+0 0  9990
2 27389   4.7973  81.9618 0019617 221.0141 156.7634  1.00272245 55273
JCSAT-2A                
1 27399U 02015A   16314.20211152 -.00000165  00000-0  00000+0 0  9999
2 27399   0.0467  97.4234 0002214 164.8593  13.3087  1.00272486 53452
ASTRA 3A                
1 27400U 02015B   16314.29888314 -.00000198  00000-0  00000+0 0  9997
2 27400   3.3916  69.7821 0001776 159.1244 200.7794  1.00270667 53553
INTELSAT 903 (IS-903)   
1 27403U 02016A   16314.30893311 -.00000239  00000-0  00000+0 0  9992
2 27403   0.0142 321.4007 0003091 266.8589 257.3750  1.00270231 53484
NSS-7                   
1 27414U 02019A   16313.15642802 -.00000154  00000-0  00000+0 0  9992
2 27414   1.4360  84.1547 0002694 152.7162 207.2423  1.00271631 53388
DIRECTV 5 (TEMPO 1)     
1 27426U 02023A   16314.17034200 -.00000057  00000-0  00000+0 0  9992
2 27426   0.0155 275.3349 0003363 308.9376 135.7385  1.00271624 53146
INTELSAT 905 (IS-905)   
1 27438U 02027A   16314.29916308 -.00000185  00000-0  00000+0 0  9992
2 27438   0.0106 290.4149 0001098 354.9011 206.7781  1.00273136 52802
EXPRESS-A4              
1 27441U 02029A   16314.34391245 -.00000244  00000-0  00000+0 0  9997
2 27441   5.6868  57.9272 0002791 136.3533 123.7401  1.00268424 52808
GALAXY 3C (G-3C)        
1 27445U 02030A   16313.13135080 -.00000151  00000-0  00000+0 0  9999
2 27445   0.0187 294.0781 0001461  30.6077  35.3427  1.00270672 52787
EUTELSAT 5 WEST A       
1 27460U 02035A   16313.87910667 -.00000042  00000-0  00000+0 0  9993
2 27460   0.0540  41.3507 0005921 193.2763 125.3554  1.00272563 52589
N-STAR C                
1 27461U 02035B   16313.87653470 -.00000307  00000-0  00000+0 0  9994
2 27461   4.2217  66.0379 0001550 125.8449 308.1397  1.00268858 52492
ECHOSTAR 8              
1 27501U 02039A   16314.11439029 -.00000242  00000-0  00000+0 0  9991
2 27501   0.6276  89.2075 0003062 132.3424 151.4772  1.00270151 52112
EUTELSAT 12 WEST A      
1 27508U 02040A   16313.96518439 -.00000246  00000-0  00000+0 0  9999
2 27508   0.0751  24.0176 0003864 254.9698  81.0068  1.00267353 52086
METEOSAT-8 (MSG-1)      
1 27509U 02040B   16314.08914699  .00000144  00000-0  00000+0 0  9998
2 27509   4.4561  59.1620 0000957 202.6404 220.4200  1.00265514 52086
INTELSAT 906 (IS-906)   
1 27513U 02041A   16314.09332373  .00000014  00000-0  00000+0 0  9994
2 27513   0.0196 280.2774 0002963 312.9256 273.2476  1.00271382 51803
KODAMA (DRTS)           
1 27516U 02042B   16313.77549334 -.00000236  00000-0  00000+0 0  9996
2 27516   4.6433  63.3147 0002743 175.6467 179.3227  1.00269572 51884
KALPANA-1 (METSAT 1)    
1 27525U 02043A   16312.82183129 -.00000073  00000-0  00000-0 0  9998
2 27525   5.9787  56.6884 0015662 217.8977 141.9052  1.00272428 51887
HISPASAT 1D             
1 27528U 02044A   16314.30909645 -.00000217  00000-0  00000+0 0  9995
2 27528   0.0292 356.2614 0004595 258.4159 235.5670  1.00271735 51788
TDRS 10                 
1 27566U 02055A   16312.51778116  .00000084  00000-0  00000+0 0  9998
2 27566   4.6490  59.3747 0011463 201.1289 158.7149  1.00276001 51046
NSS-6                   
1 27603U 02057A   16313.96317929 -.00000270  00000-0  00000+0 0  9991
2 27603   0.0049  75.6188 0002890 163.7675 250.9577  1.00270271 50923
NIMIQ 2                 
1 27632U 02062A   16313.03249013  .00000138  00000-0  00000+0 0  9997
2 27632   1.5256  83.1679 0000966 158.2411 201.6950  1.00271221 50709
INTELSAT 907 (IS-907)   
1 27683U 03007A   16313.94152371 -.00000203  00000-0  00000+0 0  9997
2 27683   0.0217 271.8236 0002840 317.9178 130.2338  1.00268751 50226
INSAT-3A                
1 27714U 03013A   16313.77549334 -.00000259  00000-0  00000+0 0  9990
2 27714   0.0379 268.1350 0003718 238.3495 274.6439  1.00272499 49787
GALAXY 12 (G-12)        
1 27715U 03013B   16314.22121015  .00000058  00000-0  00000+0 0  9990
2 27715   0.0641  83.8603 0002601 151.7081 123.9208  1.00271649 49845
ASIASAT 4               
1 27718U 03014A   16314.47286438 -.00000360  00000-0  00000+0 0  9999
2 27718   0.0017 177.1936 0000551 109.2936  54.9860  1.00272126 49758
HELLAS-SAT 2            
1 27811U 03020A   16313.83451346  .00000152  00000-0  00000+0 0  9999
2 27811   0.0049  82.4052 0004133 138.7644 166.7247  1.00270946 49172
AMC-9 (GE-12)           
1 27820U 03024A   16314.10607223 -.00000217  00000-0  00000+0 0  9994
2 27820   0.0189 323.7972 0002816 256.4629 143.6545  1.00271494 49170
THURAYA-2               
1 27825U 03026A   16313.81505646  .00000132  00000-0  00000+0 0  9999
2 27825   4.7283  28.2182 0005183 191.8217 165.8318  1.00274233 49174
OPTUS C1                
1 27831U 03028B   16313.32817138 -.00000147  00000-0  00000+0 0  9993
2 27831   0.0564 110.7865 0004199 102.0622 109.2821  1.00271596 49144
ECHOSTAR 12 (RAINBOW 1) 
1 27852U 03033A   16314.43464520 -.00000283  00000-0  00000+0 0  9999
2 27852   0.0099 328.8833 0001527 233.8395 301.6367  1.00271786 48827
GALAXY 23 (G-23)        
1 27854U 03034A   16313.47574115  .00000012  00000-0  00000+0 0  9996
2 27854   0.0056 279.2714 0003270 313.8191 225.2998  1.00273053 53375
EUTELSAT 33A            
1 27948U 03043A   16313.93729922  .00000154  00000-0  00000+0 0  9996
2 27948   1.9264  79.2297 0001602 209.0614 128.5651  1.00271307 48158
